{
    "week": 293,
    "satellites": [
        {
            "Name": "COSMOS 2545 (760)",
            "Line1": "1 45358U 20018A   24321.09633056 -.00000050  00000+0  00000+0 0  9994",
            "Line2": "2 45358  64.6779 332.6651 0012269 248.0138 111.8924  2.13102467 36346",
            "SatelliteNumber": "45358",
            "Classification": "U",
            "LaunchYear": "20",
            "LaunchNumber": "018",
            "PieceOfLaunch": "A",
            "EpochYear": "24",
            "EpochDay": 321.09633056,
            "FirstDerivativeMeanMotion": -5e-07,
            "SecondDerivativeMeanMotion": "00000+0",
            "BSTAR": "00000+0",
            "SetNumber": "999",
            "Inclination": 64.6779,
            "RAAN": 332.6651,
            "Eccentricity": 0.0012269,
            "ArgumentOfPerigee": 248.0138,
            "MeanAnomaly": 111.8924,
            "MeanMotion": 2.13102467,
            "RevolutionNumber": "3634"
        },
        {
            "Name": "COSMOS 2547 (705K)",
            "Line1": "1 46805U 20075A   24321.28289852  .00000049  00000+0  00000+0 0  9994",
            "Line2": "2 46805  64.5961 211.7800 0006531 236.1191 123.8991  2.13102718 31599",
            "SatelliteNumber": "46805",
            "Classification": "U",
            "LaunchYear": "20",
            "LaunchNumber": "075",
            "PieceOfLaunch": "A",
            "EpochYear": "24",
            "EpochDay": 321.28289852,
            "FirstDerivativeMeanMotion": 4.9e-07,
            "SecondDerivativeMeanMotion": "00000+0",
            "BSTAR": "00000+0",
            "SetNumber": "999",
            "Inclination": 64.5961,
            "RAAN": 211.78,
            "Eccentricity": 0.0006531,
            "ArgumentOfPerigee": 236.1191,
            "MeanAnomaly": 123.8991,
            "MeanMotion": 2.13102718,
            "RevolutionNumber": "3159"
        },
        {
            "Name": "COSMOS 2557 (706K)",
            "Line1": "1 52984U 22075A   24320.51029351 -.00000047  00000+0  00000+0 0  9991",
            "Line2": "2 52984  64.6087 334.8017 0014047 276.2317  83.6507  2.13101950 18382",
            "SatelliteNumber": "52984",
            "Classification": "U",
            "LaunchYear": "22",
            "LaunchNumber": "075",
            "PieceOfLaunch": "A",
            "EpochYear": "24",
            "EpochDay": 320.51029351,
            "FirstDerivativeMeanMotion": -4.7e-07,
            "SecondDerivativeMeanMotion": "00000+0",
            "BSTAR": "00000+0",
            "SetNumber": "999",
            "Inclination": 64.6087,
            "RAAN": 334.8017,
            "Eccentricity": 0.0014047,
            "ArgumentOfPerigee": 276.2317,
            "MeanAnomaly": 83.6507,
            "MeanMotion": 2.1310195,
            "RevolutionNumber": "1838"
        },
        {
            "Name": "COSMOS 2559 (707K)",
            "Line1": "1 54031U 22130A   24320.92293850 -.00000050  00000+0  00000+0 0  9994",
            "Line2": "2 54031  64.5806 334.8995 0008346 231.7564 128.2093  2.13101286 16369",
            "SatelliteNumber": "54031",
            "Classification": "U",
            "LaunchYear": "22",
            "LaunchNumber": "130",
            "PieceOfLaunch": "A",
            "EpochYear": "24",
            "EpochDay": 320.9229385,
            "FirstDerivativeMeanMotion": -5e-07,
            "SecondDerivativeMeanMotion": "00000+0",
            "BSTAR": "00000+0",
            "SetNumber": "999",
            "Inclination": 64.5806,
            "RAAN": 334.8995,
            "Eccentricity": 0.0008346,
            "ArgumentOfPerigee": 231.7564,
            "MeanAnomaly": 128.2093,
            "MeanMotion": 2.13101286,
            "RevolutionNumber": "1636"
        },
        {
            "Name": "COSMOS 2564 (761)",
            "Line1": "1 54377U 22161A   24321.58245209  .00000048  00000+0  00000+0 0  9995",
            "Line2": "2 54377  64.7375 211.9022 0008627 212.9949 147.0320  2.13102044 15321",
            "SatelliteNumber": "54377",
            "Classification": "U",
            "LaunchYear": "22",
            "LaunchNumber": "161",
            "PieceOfLaunch": "A",
            "EpochYear": "24",
            "EpochDay": 321.58245209,
            "FirstDerivativeMeanMotion": 4.8e-07,
            "SecondDerivativeMeanMotion": "00000+0",
            "BSTAR": "00000+0",
            "SetNumber": "999",
            "Inclination": 64.7375,
            "RAAN": 211.9022,
            "Eccentricity": 0.0008627,
            "ArgumentOfPerigee": 212.9949,
            "MeanAnomaly": 147.032,
            "MeanMotion": 2.13102044,
            "RevolutionNumber": "1532"
        },
        {
            "Name": "COSMOS 2569 (703K)",
            "Line1": "1 57517U 23114A   24321.59849148 -.00000002  00000+0  00000+0 0  9997",
            "Line2": "2 57517  64.9893  92.1485 0009165 290.0603  69.8145  2.13103995  9955",
            "SatelliteNumber": "57517",
            "Classification": "U",
            "LaunchYear": "23",
            "LaunchNumber": "114",
            "PieceOfLaunch": "A",
            "EpochYear": "24",
            "EpochDay": 321.59849148,
            "FirstDerivativeMeanMotion": -2e-08,
            "SecondDerivativeMeanMotion": "00000+0",
            "BSTAR": "00000+0",
            "SetNumber": "999",
            "Inclination": 64.9893,
            "RAAN": 92.1485,
            "Eccentricity": 0.0009165,
            "ArgumentOfPerigee": 290.0603,
            "MeanAnomaly": 69.8145,
            "MeanMotion": 2.13103995,
            "RevolutionNumber": "995"
        }
    ]
}